     2.10           G: GLONASS NAV DATA                     RINEX VERSION / TYPE
teqc  2015Jun23                         20220429 01:25:41UTCPGM / RUN BY / DATE
Linux 2.4.21-27.ELsmp|Opteron|gcc -static|Linux x86_64|=+   COMMENT
  2022     4    18   -9.313225746155D-10                    CORR TO SYSTEM TIME
                                                            END OF HEADER
 5 22  4 19 15 15  0.0 9.142979979515D-05 9.094947017729D-13 5.400000000000D+04
    1.506400830078D+04-2.711286544800D-01 9.313225746155D-10 0.000000000000D+00
    2.010480517578D+04-5.806560516357D-01-2.793967723846D-09 1.000000000000D+00
    4.503178710938D+03 3.510481834412D+00 0.000000000000D+00 0.000000000000D+00
14 22  4 19 15 15  0.0 7.668137550354D-05 0.000000000000D+00 5.400000000000D+04
   -2.240829394531D+04-1.063585281372D+00-5.587935447693D-09 0.000000000000D+00
    9.060175292969D+03 3.711862564087D-01 1.862645149231D-09-7.000000000000D+00
   -8.168043945312D+03 3.324585914612D+00-2.793967723846D-09 0.000000000000D+00
15 22  4 19 15 15  0.0 9.671878069639D-05-0.000000000000D+00 5.400000000000D+04
   -8.262230957031D+03-2.785046577454D+00-4.656612873077D-09 0.000000000000D+00
    1.205100390625D+04 6.718091964722D-01 0.000000000000D+00 0.000000000000D+00
   -2.089279248047D+04 1.487578392029D+00 0.000000000000D+00 0.000000000000D+00
18 22  4 19 15 15  0.0 1.140870153904D-04 9.094947017729D-13 5.400000000000D+04
   -7.671054687500D+03 1.837406158447D-01-3.725290298462D-09 0.000000000000D+00
    2.433318212891D+04 2.282295227051D-01-9.313225746155D-10-3.000000000000D+00
    1.160840820312D+03-3.598379135132D+00-1.862645149231D-09 0.000000000000D+00
 4 22  4 19 15 15  0.0 1.375004649162D-04 1.818989403546D-12 5.403000000000D+04
    3.230683105469D+03-1.638564109802D+00 9.313225746155D-10 0.000000000000D+00
    1.687886376953D+04-1.994300842285D+00-1.862645149231D-09 6.000000000000D+00
    1.888704785156D+04 2.065388679504D+00-1.862645149231D-09 0.000000000000D+00
14 22  4 19 15 45  0.0 7.668230682611D-05 0.000000000000D+00 5.580000000000D+04
   -2.354830322266D+04-2.032604217529D-01-4.656612873077D-09 0.000000000000D+00
    9.631288085938D+03 2.224330902100D-01 2.793967723846D-09-7.000000000000D+00
   -1.945473632812D+03 3.544503211975D+00-2.793967723846D-09 0.000000000000D+00
19 22  4 19 15 45  0.0-1.859515905380D-04-9.094947017729D-13 5.580000000000D+04
   -5.016201171875D+02-8.719825744629D-02-1.862645149231D-09 0.000000000000D+00
    2.328422216797D+04 1.444111824036D+00-9.313225746155D-10 3.000000000000D+00
    1.040583886719D+04-3.233939170837D+00-1.862645149231D-09 0.000000000000D+00
 4 22  4 19 15 45  0.0 1.375041902065D-04 2.728484105319D-12 5.580000000000D+04
   -2.599990234375D+02-2.220241546631D+00 9.313225746155D-10 0.000000000000D+00
    1.325178857422D+04-1.989911079407D+00-9.313225746155D-10 6.000000000000D+00
    2.182922802734D+04 1.182608604431D+00-1.862645149231D-09 0.000000000000D+00
 5 22  4 19 15 45  0.0 9.143166244030D-05 9.094947017729D-13 5.580000000000D+04
    1.394831835938D+04-9.837017059326D-01 0.000000000000D+00 0.000000000000D+00
    1.858337646484D+04-1.069953918457D+00-2.793967723846D-09 1.000000000000D+00
    1.056675292969D+04 3.183174133301D+00-0.000000000000D+00 0.000000000000D+00
15 22  4 19 15 45  0.0 9.671784937382D-05-0.000000000000D+00 5.580000000000D+04
   -1.279540478516D+04-2.216135978699D+00-5.587935447693D-09 0.000000000000D+00
    1.349856103516D+04 9.034833908081D-01 1.862645149231D-09 0.000000000000D+00
   -1.744103125000D+04 2.322750091553D+00-0.000000000000D+00 0.000000000000D+00
17 22  4 19 15 45  0.0 5.189133808017D-04 2.728484105319D-12 5.580000000000D+04
   -1.122502441406D+04 6.135540008545D-01-5.587935447693D-09 0.000000000000D+00
    1.247392382812D+04-2.564200401306D+00 1.862645149231D-09 4.000000000000D+00
   -1.919381982422D+04-2.027551651001D+00-0.000000000000D+00 0.000000000000D+00
18 22  4 19 15 45  0.0 1.140898093581D-04 9.094947017729D-13 5.580000000000D+04
   -7.129082519531D+03 3.762693405151D-01-4.656612873077D-09 0.000000000000D+00
    2.394655273438D+04-6.641731262207D-01 0.000000000000D+00-3.000000000000D+00
   -5.277565917969D+03-3.509104728699D+00-9.313225746155D-10 0.000000000000D+00
14 22  4 19 16 15  0.0 7.668323814869D-05 0.000000000000D+00 5.760000000000D+04
   -2.317504541016D+04 5.991048812866D-01-2.793967723846D-09 0.000000000000D+00
    9.720336914062D+03-1.591901779175D-01 2.793967723846D-09-7.000000000000D+00
    4.427416015625D+03 3.490547180176D+00-3.725290298462D-09 0.000000000000D+00
19 22  4 19 16 15  0.0-1.859534531832D-04-9.094947017729D-13 5.760000000000D+04
   -3.655048828125D+02 2.008419036865D-01-2.793967723846D-09 0.000000000000D+00
    2.514923486328D+04 6.050100326538D-01-0.000000000000D+00 3.000000000000D+00
    4.257665527344D+03-3.553002357483D+00-1.862645149231D-09 0.000000000000D+00
 5 22  4 19 16 15  0.0 9.143352508545D-05 9.094947017729D-13 5.760000000000D+04
    1.150119775391D+04-1.731737136841D+00 0.000000000000D+00 0.000000000000D+00
    1.640855957031D+04-1.301448822021D+00-1.862645149231D-09 1.000000000000D+00
    1.581492871094D+04 2.610373497009D+00-9.313225746155D-10 0.000000000000D+00
15 22  4 19 16 15  0.0 9.671691805124D-05-0.000000000000D+00 5.760000000000D+04
   -1.614045800781D+04-1.481576919556D+00-5.587935447693D-09 0.000000000000D+00
    1.516665966797D+04 9.083576202393D-01 2.793967723846D-09 0.000000000000D+00
   -1.263915771484D+04 2.977952957153D+00-1.862645149231D-09 0.000000000000D+00
17 22  4 19 16 15  0.0 5.189189687371D-04 2.728484105319D-12 5.760000000000D+04
   -1.043649658203D+04 2.382516860962D-01-3.725290298462D-09 0.000000000000D+00
    7.410690429688D+03-3.016600608826D+00 2.793967723846D-09 4.000000000000D+00
   -2.205326171875D+04-1.129027366638D+00 0.000000000000D+00 0.000000000000D+00
18 22  4 19 16 15  0.0 1.140926033258D-04 9.094947017729D-13 5.760000000000D+04
   -6.470563964844D+03 3.135757446289D-01-4.656612873077D-09 0.000000000000D+00
    2.195566308594D+04-1.534125328064D+00 9.313225746155D-10-3.000000000000D+00
   -1.130916406250D+04-3.149241447449D+00-9.313225746155D-10 0.000000000000D+00
 4 22  4 19 16 15  0.0 1.375088468194D-04 2.728484105319D-12 5.775000000000D+04
   -4.660703125000D+03-2.633579254150D+00 9.313225746155D-10 0.000000000000D+00
    9.866942382812D+03-1.733944892883D+00-9.313225746155D-10 6.000000000000D+00
    2.308977636719D+04 2.089557647705D-01-2.793967723846D-09 0.000000000000D+00
14 22  4 19 16 45  0.0 7.668416947126D-05 0.000000000000D+00 5.940000000000D+04
   -2.148877734375D+04 1.240340232849D+00-9.313225746155D-10 0.000000000000D+00
    8.948993652344D+03-7.216596603394D-01 2.793967723846D-09-7.000000000000D+00
    1.045832861328D+04 3.167013168335D+00-3.725290298462D-09 0.000000000000D+00
19 22  4 19 16 45  0.0-1.859562471509D-04-9.094947017729D-13 5.940000000000D+04
    7.388525390625D+01 2.445411682129D-01-3.725290298462D-09 0.000000000000D+00
    2.541376464844D+04-3.144750595093D-01 0.000000000000D+00 3.000000000000D+00
   -2.219708496094D+03-3.597348213196D+00-1.862645149231D-09 0.000000000000D+00
 5 22  4 19 16 45  0.0 9.143538773060D-05 9.094947017729D-13 5.940000000000D+04
    7.761500000000D+03-2.401004791260D+00 0.000000000000D+00 0.000000000000D+00
    1.405863330078D+04-1.267022132874D+00-1.862645149231D-09 1.000000000000D+00
    1.984303320312D+04 1.836317062378D+00-1.862645149231D-09 0.000000000000D+00
15 22  4 19 16 45  0.0 9.671598672867D-05-0.000000000000D+00 5.940000000000D+04
   -1.809469140625D+04-6.898841857910D-01-3.725290298462D-09 0.000000000000D+00
    1.661388525391D+04 6.568212509155D-01 3.725290298462D-09 0.000000000000D+00
   -6.859140625000D+03 3.402528762817D+00-2.793967723846D-09 0.000000000000D+00
18 22  4 19 16 45  0.0 1.140953972936D-04 9.094947017729D-13 5.940000000000D+04
   -6.139126953125D+03 2.078151702881D-02-4.656612873077D-09 0.000000000000D+00
    1.850750585938D+04-2.265094757080D+00 2.793967723846D-09-3.000000000000D+00
   -1.646852832031D+04-2.546163558960D+00-0.000000000000D+00 0.000000000000D+00
20 22  4 19 16 45  0.0-6.895419210196D-05-0.000000000000D+00 6.018000000000D+04
    8.138962402344D+03 2.743806838989D-01-0.000000000000D+00 0.000000000000D+00
    1.742352441406D+04 2.291474342346D+00-1.862645149231D-09 2.000000000000D+00
    1.678997802734D+04-2.506991386414D+00-1.862645149231D-09 0.000000000000D+00
14 22  4 19 17 15  0.0 7.668510079384D-05 0.000000000000D+00 6.120000000000D+04
   -1.885235449219D+04 1.645373344421D+00 0.000000000000D+00 0.000000000000D+00
    7.065321777344D+03-1.378507614136D+00 9.313225746155D-10-7.000000000000D+00
    1.568158105469D+04 2.598976135254D+00-3.725290298462D-09 0.000000000000D+00
19 22  4 19 17 15  0.0-1.859581097960D-04-9.094947017729D-13 6.120000000000D+04
    3.625776367188D+02 3.604507446289D-02-3.725290298462D-09 0.000000000000D+00
    2.404182568359D+04-1.193017005920D+00 1.862645149231D-09 3.000000000000D+00
   -8.525493652344D+03-3.363596916199D+00-9.313225746155D-10 0.000000000000D+00
 5 22  4 19 17 15  0.0 9.143725037575D-05 9.094947017729D-13 6.120000000000D+04
    2.968775878906D+03-2.885828018188D+00 0.000000000000D+00 0.000000000000D+00
    1.198543164062D+04-1.003643989563D+00-9.313225746155D-10 1.000000000000D+00
    2.234046630859D+04 9.206190109253D-01-2.793967723846D-09 0.000000000000D+00
15 22  4 19 17 15  0.0 9.671598672867D-05-0.000000000000D+00 6.120000000000D+04
   -1.865833447266D+04 4.510211944580D-02-2.793967723846D-09 0.000000000000D+00
    1.738567724609D+04 1.641807556152D-01 3.725290298462D-09 0.000000000000D+00
   -5.484721679688D+02 3.563766479492D+00-2.793967723846D-09 0.000000000000D+00
18 22  4 19 17 15  0.0 1.140981912613D-04 9.094947017729D-13 6.120000000000D+04
   -6.494164062500D+03-4.349946975708D-01-3.725290298462D-09 0.000000000000D+00
    1.394314892578D+04-2.760903358459D+00 3.725290298462D-09-3.000000000000D+00
   -2.035677636719D+04-1.745973587036D+00 0.000000000000D+00 0.000000000000D+00
